{"type":"FeatureCollection","features":[{"type":"Feature","id":"regulated_boundary.fid-5457b55d_1a07a4291e2_6fb1","geometry":{"type":"MultiPolygon","coordinates":[[[[73.84898613,19.19390374],[73.84921406,19.19517005],[73.84984018,19.19616181],[73.8510928,19.19739179],[73.85189963,19.19849579],[73.85340824,19.19932794],[73.85410777,19.20013289],[73.85474998,19.2005827],[73.85507693,19.20196585],[73.85562678,19.20325868],[73.85606497,19.20386035],[73.85645985,19.20502262],[73.85762458,19.2066052],[73.85865853,19.20726251],[73.86001449,19.20749952],[73.86109349,19.20726964],[73.86215004,19.2065698],[73.86266947,19.20584461],[73.86375474,19.20353632],[73.86445777,19.19907913],[73.86438905,19.19745234],[73.86469308,19.19641541],[73.86551044,19.19504652],[73.86590036,19.19387296],[73.86591837,19.19221185],[73.86566361,19.19155198],[73.86510776,19.19085161],[73.86420169,19.19024396],[73.86312704,19.18999682],[73.86158692,19.19028706],[73.86023288,19.19014738],[73.85713296,19.19018123],[73.8553575,19.19054588],[73.85236481,19.19071156],[73.8515316,19.19102733],[73.84986094,19.19206243],[73.84924635,19.19288275],[73.84898613,19.19390374]]]]},"geometry_name":"geom","properties":{"gid":2394,"name":"MUMMH015","asicircle":"Mumbai Circle","state":"Maharashtra","buff_dist":300,"orig_fid":null,"location":"Junnar","district":"Pune","mon_name":"Fort of Shivner","mon_num":"MUMMH015","flag":"S"}}],"totalFeatures":"unknown","numberReturned":1,"timeStamp":"2026-09-07T05:42:03.907Z","crs":{"type":"name","properties":{"name":"urn:ogc:def:crs:EPSG::4326"}}}
