{"type":"FeatureCollection","features":[{"type":"Feature","id":"prohibited_boundary.fid--3a0a45a_1a07a374054_67a9","geometry":{"type":"MultiPolygon","coordinates":[[[[73.86411103,19.19285748],[73.86387098,19.19221768],[73.86310994,19.19179447],[73.86158634,19.19218729],[73.86038535,19.19194504],[73.85861633,19.19206926],[73.85734867,19.19196605],[73.85551276,19.19235222],[73.85270558,19.19248134],[73.85134822,19.19319976],[73.8509292,19.1937095],[73.85088325,19.19414713],[73.85106536,19.19470601],[73.85267835,19.19638123],[73.85318174,19.19717659],[73.85448811,19.19780848],[73.85544584,19.19886338],[73.85638803,19.19940202],[73.85671858,19.20093507],[73.85726504,19.20235413],[73.85784816,19.20320337],[73.85823948,19.20439158],[73.85875205,19.20512208],[73.85931993,19.20558082],[73.86007323,19.20569717],[73.8607493,19.20536284],[73.86194756,19.20301236],[73.86257848,19.1988943],[73.86249284,19.19724181],[73.86294951,19.19569057],[73.86381913,19.19424093],[73.86411103,19.19285748]]]]},"geometry_name":"geom","properties":{"gid":9785,"name":"MUMMH015","asicircle":"Mumbai Circle","state":"Maharashtra","buff_dist":100,"orig_fid":null,"location":"Junnar","district":"Pune","mon_name":"Fort of Shivner","mon_num":"MUMMH015","flag":"S"}}],"totalFeatures":"unknown","numberReturned":1,"timeStamp":"2026-09-07T05:41:48.866Z","crs":{"type":"name","properties":{"name":"urn:ogc:def:crs:EPSG::4326"}}}
