{"type":"FeatureCollection","features":[{"type":"Feature","id":"protected_areas.fid--64429d2b_1a07a5d4410_-3b9f","geometry":{"type":"MultiPolygon","coordinates":[[[[73.86279634,19.19414318],[73.86315325,19.19317236],[73.86315325,19.19280116],[73.86301049,19.19268695],[73.86178148,19.19312326],[73.86030172,19.19283898],[73.85852902,19.19299365],[73.85769621,19.19285088],[73.85559039,19.19325539],[73.85298488,19.19333867],[73.8518175,19.19401469],[73.85204593,19.19447154],[73.85347361,19.19588018],[73.85385432,19.19654643],[73.85505357,19.19707943],[73.85606246,19.1981835],[73.85716653,19.19884975],[73.8580041,19.2017051],[73.85874649,19.20290435],[73.85905106,19.20393228],[73.85967924,19.20475081],[73.86009803,19.20471274],[73.86104981,19.20273303],[73.86163992,19.19879264],[73.86154474,19.19713654],[73.86207774,19.19532815],[73.86279634,19.19414318]]]]},"geometry_name":"geom","properties":{"gid":7068,"name":"MUMMH015","asicircle":"Mumbai Circle","state":"Maharashtra","location":"Junnar","district":"Pune","mon_name":"Fort of Shivner","mon_num":"MUMMH015","flag":"S"}}],"totalFeatures":"unknown","numberReturned":1,"timeStamp":"2026-09-07T05:41:20.662Z","crs":{"type":"name","properties":{"name":"urn:ogc:def:crs:EPSG::4326"}}}
